[{"OBJECT_NAME":"TRANSPORTER-10 OBJECT AW","OBJECT_ID":"2024-043AW","EPOCH":"2026-03-09T22:04:49.515456","MEAN_MOTION":15.70494371,"ECCENTRICITY":0.00039773,"INCLINATION":97.534,"RA_OF_ASC_NODE":220.1774,"ARG_OF_PERICENTER":196.6835,"MEAN_ANOMALY":163.4297,"EPHEMERIS_TYPE":0,"CLASSIFICATION_TYPE":"U","NORAD_CAT_ID":59142,"ELEMENT_SET_NO":999,"REV_AT_EPOCH":11287,"BSTAR":0.00092189633,"MEAN_MOTION_DOT":0.00114165,"MEAN_MOTION_DDOT":0},{"OBJECT_NAME":"STARLINK-11196 [DTC]","OBJECT_ID":"2024-141L","EPOCH":"2026-03-09T10:42:13.325184","MEAN_MOTION":15.69705652,"ECCENTRICITY":0.00014282,"INCLINATION":53.1589,"RA_OF_ASC_NODE":87.5338,"ARG_OF_PERICENTER":69.0438,"MEAN_ANOMALY":291.0733,"EPHEMERIS_TYPE":0,"CLASSIFICATION_TYPE":"U","NORAD_CAT_ID":60408,"ELEMENT_SET_NO":999,"REV_AT_EPOCH":9170,"BSTAR":-2.883658e-6,"MEAN_MOTION_DOT":-9.38e-6,"MEAN_MOTION_DDOT":0}]
